CALSPHERE 1             
1 00900U 64063C   22336.70434395  .00000505  00000+0  52713-3 0  9999
2 00900  90.1837  44.0510 0026082 231.8021 227.2983 13.73988411893769
CALSPHERE 2             
1 00902U 64063E   22336.97834936  .00000041  00000+0  48375-4 0  9990
2 00902  90.1986  47.2555 0019049  24.5696 149.1008 13.52728996682011
LCS 1                   
1 01361U 65034C   22336.75186586  .00000012  00000+0  47971-3 0  9994
2 01361  32.1462   5.6975 0011337 114.6023 245.5656  9.89301979 81899
TEMPSAT 1               
1 01512U 65065E   22337.47114834  .00000022  00000+0  27044-4 0  9994
2 01512  89.9245 217.3354 0068207 276.2537 261.2269 13.33462657787895
CALSPHERE 4A            
1 01520U 65065H   22336.89758277  .00000102  00000+0  17856-3 0  9991
2 01520  89.9803 129.9727 0070096 147.5973  23.6685 13.35919062790142
OPS 5712 (P/L 160)      
1 02826U 67053A   22337.49987099  .00002275  00000+0  58427-3 0  9995
2 02826  69.9280 252.2677 0002215 154.2260 205.8985 14.51480705877751
OPS 5712 (P/L 153)      
1 02874U 67053H   22336.82847427  .00000010  00000+0  45689-4 0  9996
2 02874  69.9745   4.4895 0004480  62.1021 298.0538 13.96430630826333
SURCAL 150B             
1 02909U 67053J   22336.80131429  .00003759  00000+0  70501-3 0  9994
2 02909  69.9467 234.9486 0003189 213.9853 146.1085 14.65516036888265
RIGIDSPHERE 2 (LCS 4)   
1 05398U 71067E   22336.82259135  .00000470  00000+0  15702-3 0  9995
2 05398  87.6205 336.5570 0062664 187.8605 172.1617 14.34409475688393
COSMOS 2493 (SKRL-756 1)
1 39490U 13078A   22337.52144191  .00001553  00000+0  15851-3 0  9994
2 39490  82.4192  72.1067 0015659 254.1607 105.7885 14.89934998485192
COSMOS 2494 (SKRL-756 2)
1 39491U 13078B   22337.53172557  .00001666  00000+0  16374-3 0  9999
2 39491  82.4194  65.5036 0020462 227.7952 132.1531 14.91425939485537
